ORBCOMM FM05            
1 25117U 97084F   24145.59484034  .00003496  00000+0  10803-2 0  9992
2 25117  45.0154  69.3905 0002562  50.0564 310.0512 14.42825601384420
ORBCOMM FM06            
1 25118U 97084G   24145.23688378  .00003902  00000+0  11992-2 0  9993
2 25118  45.0148  71.2617 0001716  49.5162 105.7074 14.42876131385284
ORBCOMM FM07            
1 25119U 97084H   24145.19907022  .00003385  00000+0  10480-2 0  9995
2 25119  45.0144  71.9860 0003440  41.0628 319.0480 14.42791927385299
ORBCOMM FM03            
1 25158U 98007B   24145.55852947  .00002007  00000+0  78173-3 0  9993
2 25158 107.9712  58.4959 0047370 209.1809 150.6681 14.32245586368352
ORBCOMM FM04            
1 25159U 98007C   24145.61440330  .00002020  00000+0  78425-3 0  9995
2 25159 107.9696  61.5557 0042879 206.9927 152.8981 14.32512060368539
ORBCOMM FM17            
1 25413U 98046A   24145.50317000  .00002227  00000+0  85342-3 0  9991
2 25413  44.9947 289.3703 0001300 102.1697 257.9294 14.33229848347541
ORBCOMM FM18            
1 25414U 98046B   24145.33136548  .00002320  00000+0  83904-3 0  9995
2 25414  44.9922 216.9777 0003077 154.6127 205.4872 14.36009466348305
ORBCOMM FM19            
1 25415U 98046C   24145.31937846  .00002445  00000+0  88446-3 0  9998
2 25415  44.9931 218.4649 0001811 162.8472 302.2022 14.35847681348265
